HAWK-2C                 
1 47502U 21006CT  26068.67595434  .00008129  00000+0  25493-3 0  9997
2 47502  97.2417 114.9961 0006943 184.0877 176.0310 15.33286436284247
STARLINK-32260          
1 61522U 24183P   26068.47707408 -.00000350  00000+0  29116-6 0  9996
2 61522  53.1603 143.1540 0001230 111.0230 249.0903 15.30189376 79622
